{
  "type": "FeatureCollection",
  "features": [
    {
      "type": "Feature",
      "properties": {
        "norad_id": 38197,
        "name": "COSMOS 2251 DEB",
        "group": "cosmos-2251-debris",
        "lat": 14.034766264411893,
        "lon": 164.7428571179964,
        "alt_km": 603.2858103121043,
        "timestamp": "2025-12-16T21:38:57.573397+00:00",
        "meta_object_name": "COSMOS 2251 DEB",
        "meta_object_id": "1993-036BSM",
        "meta_epoch": "2025-12-16T06:14:02.328288",
        "meta_mean_motion": 14.74215127,
        "meta_eccentricity": 0.01256615,
        "meta_inclination": 73.9373,
        "meta_ra_of_asc_node": 350.1341,
        "meta_arg_of_pericenter": 226.7018,
        "meta_mean_anomaly": 132.3623,
        "meta_ephemeris_type": 0,
        "meta_classification_type": "U",
        "meta_norad_cat_id": 38197,
        "meta_element_set_no": 999,
        "meta_rev_at_epoch": 85807,
        "meta_bstar": 0.0024676247,
        "meta_mean_motion_dot": 0.00018525,
        "meta_mean_motion_ddot": 0,
        "tle_line1": "1 38197U 93036BSM 25350.25974917  .00018525  00000+0  24676-2 0  9995",
        "tle_line2": "2 38197  73.9373 350.1341 0125661 226.7018 132.3623 14.74215127858078"
      },
      "geometry": {
        "type": "Point",
        "coordinates": [
          164.7428571179964,
          14.034766264411893
        ]
      }
    },
    {
      "type": "Feature",
      "properties": {
        "norad_id": 38199,
        "name": "COSMOS 2251 DEB",
        "group": "cosmos-2251-debris",
        "lat": 54.670985426646624,
        "lon": -148.6007708909126,
        "alt_km": 1220.6952529458895,
        "timestamp": "2025-12-16T21:38:57.573407+00:00",
        "meta_object_name": "COSMOS 2251 DEB",
        "meta_object_id": "1993-036BSP",
        "meta_epoch": "2025-12-15T20:26:01.047264",
        "meta_mean_motion": 13.6479812,
        "meta_eccentricity": 0.03697807,
        "meta_inclination": 73.9561,
        "meta_ra_of_asc_node": 57.0764,
        "meta_arg_of_pericenter": 342.9397,
        "meta_mean_anomaly": 15.9546,
        "meta_ephemeris_type": 0,
        "meta_classification_type": "U",
        "meta_norad_cat_id": 38199,
        "meta_element_set_no": 999,
        "meta_rev_at_epoch": 61064,
        "meta_bstar": 0.00050452401,
        "meta_mean_motion_dot": 6.25e-06,
        "meta_mean_motion_ddot": 0,
        "tle_line1": "1 38199U 93036BSP 25349.85140101  .00000625  00000+0  50452-3 0  9995",
        "tle_line2": "2 38199  73.9561  57.0764 0369780 342.9397  15.9546 13.64798120610640"
      },
      "geometry": {
        "type": "Point",
        "coordinates": [
          -148.6007708909126,
          54.670985426646624
        ]
      }
    },
    {
      "type": "Feature",
      "properties": {
        "norad_id": 38208,
        "name": "COSMOS 2251 DEB",
        "group": "cosmos-2251-debris",
        "lat": -72.5856993654206,
        "lon": -43.228461431253635,
        "alt_km": 624.0316228441498,
        "timestamp": "2025-12-16T21:38:57.573418+00:00",
        "meta_object_name": "COSMOS 2251 DEB",
        "meta_object_id": "1993-036BSY",
        "meta_epoch": "2025-12-16T00:13:39.722592",
        "meta_mean_motion": 14.84023361,
        "meta_eccentricity": 0.00017369,
        "meta_inclination": 74.0064,
        "meta_ra_of_asc_node": 72.4172,
        "meta_arg_of_pericenter": 150.2716,
        "meta_mean_anomaly": 26.1687,
        "meta_ephemeris_type": 0,
        "meta_classification_type": "U",
        "meta_norad_cat_id": 38208,
        "meta_element_set_no": 999,
        "meta_rev_at_epoch": 71207,
        "meta_bstar": 0.0016436813,
        "meta_mean_motion_dot": 0.00013687,
        "meta_mean_motion_ddot": 0,
        "tle_line1": "1 38208U 93036BSY 25350.00948753  .00013687  00000+0  16437-2 0  9990",
        "tle_line2": "2 38208  74.0064  72.4172 0001736 150.2716  26.1687 14.84023361712075"
      },
      "geometry": {
        "type": "Point",
        "coordinates": [
          -43.228461431253635,
          -72.5856993654206
        ]
      }
    },
    {
      "type": "Feature",
      "properties": {
        "norad_id": 38212,
        "name": "COSMOS 2251 DEB",
        "group": "cosmos-2251-debris",
        "lat": 57.072548997848,
        "lon": -137.76248605041448,
        "alt_km": 568.151191244945,
        "timestamp": "2025-12-16T21:38:57.573428+00:00",
        "meta_object_name": "COSMOS 2251 DEB",
        "meta_object_id": "1993-036BTC",
        "meta_epoch": "2025-12-13T23:14:48.711840",
        "meta_mean_motion": 14.77697426,
        "meta_eccentricity": 0.00923484,
        "meta_inclination": 74.0527,
        "meta_ra_of_asc_node": 74.1891,
        "meta_arg_of_pericenter": 140.8526,
        "meta_mean_anomaly": 219.9379,
        "meta_ephemeris_type": 0,
        "meta_classification_type": "U",
        "meta_norad_cat_id": 38212,
        "meta_element_set_no": 999,
        "meta_rev_at_epoch": 81328,
        "meta_bstar": 0.00051158029,
        "meta_mean_motion_dot": 3.901e-05,
        "meta_mean_motion_ddot": 0,
        "tle_line1": "1 38212U 93036BTC 25347.96861935  .00003901  00000+0  51158-3 0  9990",
        "tle_line2": "2 38212  74.0527  74.1891 0092348 140.8526 219.9379 14.77697426813280"
      },
      "geometry": {
        "type": "Point",
        "coordinates": [
          -137.76248605041448,
          57.072548997848
        ]
      }
    },
    {
      "type": "Feature",
      "properties": {
        "norad_id": 38220,
        "name": "COSMOS 2251 DEB",
        "group": "cosmos-2251-debris",
        "lat": 39.64612921960327,
        "lon": -133.82542753960982,
        "alt_km": 585.5668901552372,
        "timestamp": "2025-12-16T21:38:57.573439+00:00",
        "meta_object_name": "COSMOS 2251 DEB",
        "meta_object_id": "1993-036BTL",
        "meta_epoch": "2025-12-16T04:57:07.896960",
        "meta_mean_motion": 14.93137894,
        "meta_eccentricity": 0.00050609,
        "meta_inclination": 74.0151,
        "meta_ra_of_asc_node": 61.3155,
        "meta_arg_of_pericenter": 35.4813,
        "meta_mean_anomaly": 324.6706,
        "meta_ephemeris_type": 0,
        "meta_classification_type": "U",
        "meta_norad_cat_id": 38220,
        "meta_element_set_no": 999,
        "meta_rev_at_epoch": 71422,
        "meta_bstar": 0.0020531264,
        "meta_mean_motion_dot": 0.00021455,
        "meta_mean_motion_ddot": 0,
        "tle_line1": "1 38220U 93036BTL 25350.20634140  .00021455  00000+0  20531-2 0  9990",
        "tle_line2": "2 38220  74.0151  61.3155 0005060  35.4813 324.6706 14.93137894714224"
      },
      "geometry": {
        "type": "Point",
        "coordinates": [
          -133.82542753960982,
          39.64612921960327
        ]
      }
    },
    {
      "type": "Feature",
      "properties": {
        "norad_id": 38479,
        "name": "COSMOS 2251 DEB",
        "group": "cosmos-2251-debris",
        "lat": 12.279150390608093,
        "lon": -6.980030929205343,
        "alt_km": 792.2179606270647,
        "timestamp": "2025-12-16T21:38:57.573449+00:00",
        "meta_object_name": "COSMOS 2251 DEB",
        "meta_object_id": "1993-036BTP",
        "meta_epoch": "2025-12-13T19:29:32.997408",
        "meta_mean_motion": 14.3831318,
        "meta_eccentricity": 0.0084157,
        "meta_inclination": 74.007,
        "meta_ra_of_asc_node": 182.3013,
        "meta_arg_of_pericenter": 291.0961,
        "meta_mean_anomaly": 83.9532,
        "meta_ephemeris_type": 0,
        "meta_classification_type": "U",
        "meta_norad_cat_id": 38479,
        "meta_element_set_no": 999,
        "meta_rev_at_epoch": 64703,
        "meta_bstar": 0.0021939338,
        "meta_mean_motion_dot": 6.938e-05,
        "meta_mean_motion_ddot": 0,
        "tle_line1": "1 38479U 93036BTP 25347.81218747  .00006938  00000+0  21939-2 0  9992",
        "tle_line2": "2 38479  74.0070 182.3013 0084157 291.0961  83.9532 14.38313180647034"
      },
      "geometry": {
        "type": "Point",
        "coordinates": [
          -6.980030929205343,
          12.279150390608093
        ]
      }
    },
    {
      "type": "Feature",
      "properties": {
        "norad_id": 38481,
        "name": "COSMOS 2251 DEB",
        "group": "cosmos-2251-debris",
        "lat": 38.04946532311222,
        "lon": 167.3272883546533,
        "alt_km": 1068.6395956878969,
        "timestamp": "2025-12-16T21:38:57.573460+00:00",
        "meta_object_name": "COSMOS 2251 DEB",
        "meta_object_id": "1993-036BTR",
        "meta_epoch": "2025-12-16T07:11:40.884000",
        "meta_mean_motion": 13.94845687,
        "meta_eccentricity": 0.02347458,
        "meta_inclination": 73.933,
        "meta_ra_of_asc_node": 1.4035,
        "meta_arg_of_pericenter": 301.0033,
        "meta_mean_anomaly": 56.8227,
        "meta_ephemeris_type": 0,
        "meta_classification_type": "U",
        "meta_norad_cat_id": 38481,
        "meta_element_set_no": 999,
        "meta_rev_at_epoch": 59110,
        "meta_bstar": 0.001378082,
        "meta_mean_motion_dot": 2.301e-05,
        "meta_mean_motion_ddot": 0,
        "tle_line1": "1 38481U 93036BTR 25350.29977875  .00002301  00000+0  13781-2 0  9991",
        "tle_line2": "2 38481  73.9330   1.4035 0234745 301.0033  56.8227 13.94845687591100"
      },
      "geometry": {
        "type": "Point",
        "coordinates": [
          167.3272883546533,
          38.04946532311222
        ]
      }
    }
  ]
}